[{"OBJECT_NAME":"STARLINK-5167","OBJECT_ID":"2022-136H","EPOCH":"2026-03-09T02:12:56.368512","MEAN_MOTION":15.08826452,"ECCENTRICITY":0.000138,"INCLINATION":53.2187,"RA_OF_ASC_NODE":346.8102,"ARG_OF_PERICENTER":80.856,"MEAN_ANOMALY":279.2588,"EPHEMERIS_TYPE":0,"CLASSIFICATION_TYPE":"U","NORAD_CAT_ID":54058,"ELEMENT_SET_NO":999,"REV_AT_EPOCH":18675,"BSTAR":-8.6490862e-5,"MEAN_MOTION_DOT":-1.664e-5,"MEAN_MOTION_DDOT":0},{"OBJECT_NAME":"OBJECT J","OBJECT_ID":"2025-292J","EPOCH":"2026-03-09T21:49:22.925568","MEAN_MOTION":15.05538385,"ECCENTRICITY":0.00147146,"INCLINATION":97.6397,"RA_OF_ASC_NODE":145.6338,"ARG_OF_PERICENTER":337.2811,"MEAN_ANOMALY":22.7762,"EPHEMERIS_TYPE":0,"CLASSIFICATION_TYPE":"U","NORAD_CAT_ID":67001,"ELEMENT_SET_NO":999,"REV_AT_EPOCH":1350,"BSTAR":0.00042553792,"MEAN_MOTION_DOT":6.079e-5,"MEAN_MOTION_DDOT":0}]
